NORAD_CAT_ID,OBJECT_NAME,OBJECT_TYPE,EPOCH,MEAN_MOTION,ECCENTRICITY,INCLINATION,RA_OF_ASC_NODE,ARG_OF_PERICENTER,MEAN_ANOMALY,BSTAR,MEAN_MOTION_DOT,MEAN_MOTION_DDOT,TLE_LINE0,TLE_LINE1,TLE_LINE2,SEMIMAJOR_AXIS,PERIOD,APOGEE,PERIGEE,DECAYED
55779.0,STARLINK-5817,PAYLOAD,2024-03-01 06:35:27,14.98328602,0.0002878,69.9982,266.0612,270.3947,89.6882,-6.2006e-05,-8.33e-06,0.0,0 STARLINK-5817,1 55779U 23028AQ  24061.27461919 -.00000833  00000-0 -62006-4 0  9994,2 55779  69.9982 266.0612 0002878 270.3947  89.6882 14.98328602 56429,6950.197,96.107,574.062,570.062,0.0
55779.0,STARLINK-5817,PAYLOAD,2024-03-01 14:36:07,14.98312101,0.0003089,69.9979,265.2195,269.9232,90.1573,0.00027135,3.145e-05,0.0,0 STARLINK-5817,1 55779U 23028AQ  24061.60841787  .00003145  00000-0  27135-3 0  9996,2 55779  69.9979 265.2195 0003089 269.9232  90.1573 14.98312101 56474,6950.248,96.108,574.26,569.966,0.0
55779.0,STARLINK-5817,PAYLOAD,2024-03-01 21:00:39,14.98323962,0.0003157,69.9981,264.5464,268.8151,91.2647,8.5636e-05,9.29e-06,0.0,0 STARLINK-5817,1 55779U 23028AQ  24061.87545746  .00000929  00000-0  85636-4 0  9999,2 55779  69.9981 264.5464 0003157 268.8151  91.2647 14.98323962 56518,6950.212,96.107,574.271,569.882,0.0
55779.0,STARLINK-5817,PAYLOAD,2024-03-02 14:38:07,14.98331383,0.0002955,69.9979,262.6947,267.3191,92.763,2.7128e-06,-6.1e-07,0.0,0 STARLINK-5817,1 55779U 23028AQ  24062.60981432 -.00000061  00000-0  27128-5 0  9998,2 55779  69.9979 262.6947 0002955 267.3191  92.7630 14.98331383 56629,6950.189,96.107,574.107,570.0,0.0
55779.0,STARLINK-5817,PAYLOAD,2024-03-02 19:26:32,14.98332468,0.0002973,69.9979,262.1896,267.2445,92.8374,-6.0036e-06,-1.65e-06,0.0,0 STARLINK-5817,1 55779U 23028AQ  24062.81009362 -.00000165  00000-0 -60036-5 0  9995,2 55779  69.9979 262.1896 0002973 267.2445  92.8374 14.98332468 56652,6950.185,96.107,574.117,569.984,0.0
55779.0,STARLINK-5817,PAYLOAD,2024-03-02 21:02:40,14.98332719,0.0002968,69.9979,262.0213,267.2068,92.8751,-2.5083e-06,-1.23e-06,0.0,0 STARLINK-5817,1 55779U 23028AQ  24062.87685324 -.00000123  00000-0 -25083-5 0  9996,2 55779  69.9979 262.0213 0002968 267.2068  92.8751 14.98332719 56668,6950.184,96.107,574.112,569.987,0.0
55779.0,STARLINK-5817,PAYLOAD,2024-03-03 14:40:08,14.98330268,0.0002987,69.9977,260.17,269.1413,90.9404,2.9826e-05,2.63e-06,0.0,0 STARLINK-5817,1 55779U 23028AQ  24063.61121347  .00000263  00000-0  29826-4 0  9990,2 55779  69.9977 260.1700 0002987 269.1413  90.9404 14.98330268 56775,6950.192,96.107,574.133,569.981,0.0
55779.0,STARLINK-5817,PAYLOAD,2024-03-03 19:28:32,14.98332618,0.0002977,69.9978,259.6649,269.1671,90.9147,3.6221e-05,3.39e-06,0.0,0 STARLINK-5817,1 55779U 23028AQ  24063.81149158  .00000339  00000-0  36221-4 0  9993,2 55779  69.9978 259.6649 0002977 269.1671  90.9147 14.98332618 56805,6950.185,96.107,574.119,569.981,0.0
55779.0,STARLINK-5817,PAYLOAD,2024-03-03 21:04:40,14.98332599,0.0002979,69.9978,259.4966,269.1705,90.9113,3.5861e-05,3.35e-06,0.0,0 STARLINK-5817,1 55779U 23028AQ  24063.87825160  .00000335  00000-0  35861-4 0  9998,2 55779  69.9978 259.4966 0002979 269.1705  90.9113 14.98332599 56817,6950.185,96.107,574.12,569.979,0.0
55779.0,STARLINK-5817,PAYLOAD,2024-03-04 14:42:09,14.98332312,0.0002917,69.9977,257.6444,269.0519,91.0306,1.121e-05,4.1e-07,0.0,0 STARLINK-5817,1 55779U 23028AQ  24064.61261110  .00000041  00000-0  11210-4 0  9996,2 55779  69.9977 257.6444 0002917 269.0519  91.0306 14.98332312 56922,6950.186,96.107,574.078,570.023,0.0
55779.0,STARLINK-5817,PAYLOAD,2024-03-04 19:30:33,14.98331529,0.0002962,69.9979,257.1399,270.0337,90.0482,-1.5487e-06,-1.12e-06,0.0,0 STARLINK-5817,1 55779U 23028AQ  24064.81289169 -.00000112  00000-0 -15487-5 0  9994,2 55779  69.9979 257.1399 0002962 270.0337  90.0482 14.98331529 56954,6950.188,96.107,574.112,569.995,0.0
55779.0,STARLINK-5817,PAYLOAD,2024-03-04 22:42:49,14.98331829,0.0002966,69.9979,256.8032,270.1075,89.9744,1.2793e-06,-7.8e-07,0.0,0 STARLINK-5817,1 55779U 23028AQ  24064.94641125 -.00000078  00000-0  12793-5 0  9999,2 55779  69.9979 256.8032 0002966 270.1075  89.9744 14.98331829 56971,6950.187,96.107,574.114,569.991,0.0
55779.0,STARLINK-5817,PAYLOAD,2024-03-05 14:44:10,14.98330699,0.0002956,69.9981,255.1198,270.1824,89.8996,-1.1314e-05,-2.28e-06,0.0,0 STARLINK-5817,1 55779U 23028AQ  24065.61401151 -.00000228  00000-0 -11314-4 0  9992,2 55779  69.9981 255.1198 0002956 270.1824  89.8996 14.98330699 57074,6950.191,96.107,574.11,570.001,0.0
55779.0,STARLINK-5817,PAYLOAD,2024-03-05 19:32:34,14.98330071,0.000299,69.9982,254.6148,270.4796,89.602,-3.4447e-05,-5.04e-06,0.0,0 STARLINK-5817,1 55779U 23028AQ  24065.81429241 -.00000504  00000-0 -34447-4 0  9993,2 55779  69.9982 254.6148 0002990 270.4796  89.6020 14.98330071 57107,6950.193,96.107,574.136,569.98,0.0
55779.0,STARLINK-5817,PAYLOAD,2024-03-06 13:10:03,14.98328862,0.0002992,69.9985,252.7632,270.9982,89.0834,-1.4866e-05,-2.7e-06,0.0,0 STARLINK-5817,1 55779U 23028AQ  24066.54865254 -.00000270  00000-0 -14866-4 0  9995,2 55779  69.9985 252.7632 0002992 270.9982  89.0834 14.98328862 57215,6950.196,96.107,574.141,569.982,0.0
55779.0,STARLINK-5817,PAYLOAD,2024-03-06 19:34:35,14.98328431,0.0002993,69.9985,252.0899,271.0571,89.0245,-1.4001e-05,-2.6e-06,0.0,0 STARLINK-5817,1 55779U 23028AQ  24066.81569294 -.00000260  00000-0 -14001-4 0  9990,2 55779  69.9985 252.0899 0002993 271.0571  89.0245 14.98328431 57252,6950.198,96.107,574.143,569.983,0.0
55779.0,STARLINK-5817,PAYLOAD,2024-03-07 14:48:12,14.98331179,0.0003036,69.9985,250.0699,269.7427,90.3384,3.5393e-05,3.29e-06,0.0,0 STARLINK-5817,1 55779U 23028AQ  24067.61680945  .00000329  00000-0  35393-4 0  9997,2 55779  69.9985 250.0699 0003036 269.7427  90.3384 14.98331179 57376,6950.189,96.107,574.164,569.944,0.0
55779.0,STARLINK-5817,PAYLOAD,2024-03-08 05:13:24,14.9833319,0.0003018,69.9988,248.5545,269.9799,90.1014,-1.5362e-05,-2.76e-06,0.0,0 STARLINK-5817,1 55779U 23028AQ  24068.21764873 -.00000276  00000-0 -15362-4 0  9994,2 55779  69.9988 248.5545 0003018 269.9799  90.1014 14.98333190 57468,6950.183,96.107,574.146,569.95,0.0
55779.0,STARLINK-5817,PAYLOAD,2024-03-08 21:14:45,14.98331304,0.0002996,69.9988,246.8712,269.0924,90.9892,3.3202e-05,3.03e-06,0.0,0 STARLINK-5817,1 55779U 23028AQ  24068.88524805  .00000303  00000-0  33202-4 0  9998,2 55779  69.9988 246.8712 0002996 269.0924  90.9892 14.98331304 57568,6950.189,96.107,574.136,569.972,0.0
55779.0,STARLINK-5817,PAYLOAD,2024-03-09 11:39:58,14.98325457,0.0003238,69.9997,245.3549,269.5516,90.5272,6.4119e-05,6.72e-06,0.0,0 STARLINK-5817,1 55779U 23028AQ  24069.48608949  .00000672  00000-0  64119-4 0  9997,2 55779  69.9997 245.3549 0003238 269.5516  90.5272 14.98325457 57652,6950.207,96.107,574.322,569.821,0.0
55779.0,STARLINK-5817,PAYLOAD,2024-03-09 18:04:30,14.98330382,0.0002824,69.9993,244.6819,261.9716,98.1122,-2.3602e-05,-3.75e-06,0.0,0 STARLINK-5817,1 55779U 23028AQ  24069.75312912 -.00000375  00000-0 -23602-4 0  9993,2 55779  69.9993 244.6819 0002824 261.9716  98.1122 14.98330382 57693,6950.192,96.107,574.019,570.094,0.0
55779.0,STARLINK-5817,PAYLOAD,2024-03-10 11:41:58,14.98327485,0.0004097,69.9994,242.8311,266.6117,93.4573,-2.4664e-05,-3.87e-06,0.0,0 STARLINK-5817,1 55779U 23028AQ  24070.48748675 -.00000387  00000-0 -24664-4 0  9996,2 55779  69.9994 242.8311 0004097 266.6117  93.4573 14.98327485 57803,6950.201,96.107,574.913,569.218,0.0
55779.0,STARLINK-5817,PAYLOAD,2024-03-10 21:18:47,14.9832285,0.0004003,69.9995,241.8213,271.9302,88.1399,5.9533e-05,6.17e-06,0.0,0 STARLINK-5817,1 55779U 23028AQ  24070.88804809  .00000617  00000-0  59533-4 0  9999,2 55779  69.9995 241.8213 0004003 271.9302  88.1399 14.98322850 57860,6950.215,96.107,574.862,569.298,0.0
55779.0,STARLINK-5817,PAYLOAD,2024-03-11 11:43:59,14.98366887,0.0003845,69.9993,240.3065,271.163,88.9088,-0.00057306,-6.931e-05,0.0,0 STARLINK-5817,1 55779U 23028AQ  24071.48887856 -.00006931  00000-0 -57306-3 0  9991,2 55779  69.9993 240.3065 0003845 271.1630  88.9088 14.98366887 57957,6950.079,96.105,574.616,569.272,0.0
55779.0,STARLINK-5817,PAYLOAD,2024-03-11 18:08:31,14.98333154,0.0003154,69.9994,239.6333,270.1171,89.9627,5.7272e-05,5.9e-06,0.0,0 STARLINK-5817,1 55779U 23028AQ  24071.75592514  .00000590  00000-0  57272-4 0  9991,2 55779  69.9994 239.6333 0003154 270.1171  89.9627 14.98333154 57994,6950.183,96.107,574.24,569.856,0.0
55779.0,STARLINK-5817,PAYLOAD,2024-03-12 11:46:01,14.98327637,0.0003155,69.9995,237.7819,270.255,89.8248,1.1713e-05,4.7e-07,0.0,0 STARLINK-5817,1 55779U 23028AQ  24072.49028969  .00000047  00000-0  11713-4 0  9998,2 55779  69.9995 237.7819 0003155 270.2550  89.8248 14.98327637 58107,6950.2,96.107,574.258,569.872,0.0
55779.0,STARLINK-5817,PAYLOAD,2024-03-12 21:22:49,14.98330813,0.0003134,70.0003,236.7724,270.0594,90.0206,3.3425e-05,3.06e-06,0.0,0 STARLINK-5817,1 55779U 23028AQ  24072.89084707  .00000306  00000-0  33425-4 0  9996,2 55779  70.0003 236.7724 0003134 270.0594  90.0206 14.98330813 58161,6950.19,96.107,574.234,569.877,0.0
55779.0,STARLINK-5817,PAYLOAD,2024-03-13 11:48:01,14.98331755,0.0003025,69.9979,235.2559,273.8235,86.2578,-4.0925e-05,-5.81e-06,0.0,0 STARLINK-5817,1 55779U 23028AQ  24073.49168912 -.00000581  00000-0 -40925-4 0  9994,2 55779  69.9979 235.2559 0003025 273.8235  86.2578 14.98331755 58257,6950.187,96.107,574.155,569.95,0.0
55779.0,STARLINK-5817,PAYLOAD,2024-03-13 21:24:50,14.98334119,0.0002962,69.9984,234.2463,271.5932,88.4888,-9.6811e-06,-2.09e-06,0.0,0 STARLINK-5817,1 55779U 23028AQ  24073.89224582 -.00000209  00000-0 -96811-5 0  9997,2 55779  69.9984 234.2463 0002962 271.5932  88.4888 14.98334119 58316,6950.18,96.107,574.104,569.987,0.0
55779.0,STARLINK-5817,PAYLOAD,2024-03-14 03:49:22,14.98328954,0.0002927,69.9981,233.5727,271.108,88.9744,-7.0494e-07,-1.01e-06,0.0,0 STARLINK-5817,1 55779U 23028AQ  24074.15928857 -.00000101  00000-0 -70494-6 0  9994,2 55779  69.9981 233.5727 0002927 271.1080  88.9744 14.98328954 58359,6950.196,96.107,574.095,570.027,0.0
